{"type": "FeatureCollection", "features": [ {"type": "Feature", "properties": {"norad_id": 34909, "name": "COSMOS 2251 DEB", "group": "cosmos-2251-debris", "lat": 49.83111810639976, "lon": -116.72915681439338, "alt_km": 633.3713596825773, "timestamp": "2025-12-09T09:46:48.041163+00:00", "meta": {"OBJECT_NAME": "COSMOS 2251 DEB", "OBJECT_ID": "1993-036ADE", "EPOCH": "2025-12-08T16:57:05.311872", "MEAN_MOTION": 14.77777338, "ECCENTRICITY": 0.0084799, "INCLINATION": 74.0146, "RA_OF_ASC_NODE": 84.5006, "ARG_OF_PERICENTER": 221.1994, "MEAN_ANOMALY": 138.2762, "EPHEMERIS_TYPE": 0, "CLASSIFICATION_TYPE": "U", "NORAD_CAT_ID": 34909, "ELEMENT_SET_NO": 999, "REV_AT_EPOCH": 66792, "BSTAR": 0.0010412976, "MEAN_MOTION_DOT": 7.909e-05, "MEAN_MOTION_DDOT": 0}, "tle": {"line1": "1 34909U 93036ADE 25342.70631148  .00007909  00000+0  10413-2 0  9997", "line2": "2 34909  74.0146  84.5006 0084799 221.1994 138.2762 14.77777338667920"}}, "geometry": {"type": "Point", "coordinates": [-116.72915681439338, 49.83111810639976]}}, {"type": "Feature", "properties": {"norad_id": 34910, "name": "COSMOS 2251 DEB", "group": "cosmos-2251-debris", "lat": -28.660069630245573, "lon": 97.58977159041235, "alt_km": 1193.0270719673472, "timestamp": "2025-12-09T09:46:48.041173+00:00", "meta": {"OBJECT_NAME": "COSMOS 2251 DEB", "OBJECT_ID": "1993-036ADF", "EPOCH": "2025-12-04T03:27:09.174816", "MEAN_MOTION": 13.3765034, "ECCENTRICITY": 0.04679235, "INCLINATION": 73.8763, "RA_OF_ASC_NODE": 114.9889, "ARG_OF_PERICENTER": 235.2756, "MEAN_ANOMALY": 311.3517, "EPHEMERIS_TYPE": 0, "CLASSIFICATION_TYPE": "U", "NORAD_CAT_ID": 34910, "ELEMENT_SET_NO": 999, "REV_AT_EPOCH": 81409, "BSTAR": 0.0018660381, "MEAN_MOTION_DOT": 1.821e-05, "MEAN_MOTION_DDOT": 0}, "tle": {"line1": "1 34910U 93036ADF 25338.14385619  .00001821  00000+0  18660-2 0  9990", "line2": "2 34910  73.8763 114.9889 0467923 235.2756 311.3517 13.37650340814099"}}, "geometry": {"type": "Point", "coordinates": [97.58977159041235, -28.660069630245573]}}, {"type": "Feature", "properties": {"norad_id": 34911, "name": "COSMOS 2251 DEB", "group": "cosmos-2251-debris", "lat": 73.55018818186625, "lon": -33.168935273082305, "alt_km": 665.9228301165049, "timestamp": "2025-12-09T09:46:48.041184+00:00", "meta": {"OBJECT_NAME": "COSMOS 2251 DEB", "OBJECT_ID": "1993-036ADG", "EPOCH": "2025-12-08T00:33:11.051712", "MEAN_MOTION": 14.59358852, "ECCENTRICITY": 0.00833702, "INCLINATION": 74.0411, "RA_OF_ASC_NODE": 253.7326, "ARG_OF_PERICENTER": 20.3643, "MEAN_ANOMALY": 354.2304, "EPHEMERIS_TYPE": 0, "CLASSIFICATION_TYPE": "U", "NORAD_CAT_ID": 34911, "ELEMENT_SET_NO": 999, "REV_AT_EPOCH": 88518, "BSTAR": 0.00028084005, "MEAN_MOTION_DOT": 1.363e-05, "MEAN_MOTION_DDOT": 0}, "tle": {"line1": "1 34911U 93036ADG 25342.02304458  .00001363  00000+0  28084-3 0  9998", "line2": "2 34911  74.0411 253.7326 0083370  20.3643 354.2304 14.59358852885185"}}, "geometry": {"type": "Point", "coordinates": [-33.168935273082305, 73.55018818186625]}}, {"type": "Feature", "properties": {"norad_id": 34913, "name": "COSMOS 2251 DEB", "group": "cosmos-2251-debris", "lat": 23.353452775456716, "lon": -64.29233290338848, "alt_km": 761.4795430545337, "timestamp": "2025-12-09T09:46:48.041195+00:00", "meta": {"OBJECT_NAME": "COSMOS 2251 DEB", "OBJECT_ID": "1993-036ADJ", "EPOCH": "2025-12-09T03:03:43.509024", "MEAN_MOTION": 14.34635486, "ECCENTRICITY": 0.002021, "INCLINATION": 74.0282, "RA_OF_ASC_NODE": 289.1171, "ARG_OF_PERICENTER": 40.2127, "MEAN_ANOMALY": 339.2145, "EPHEMERIS_TYPE": 0, "CLASSIFICATION_TYPE": "U", "NORAD_CAT_ID": 34913, "ELEMENT_SET_NO": 999, "REV_AT_EPOCH": 65136, "BSTAR": 8.696e-05, "MEAN_MOTION_DOT": 2.2e-06, "MEAN_MOTION_DDOT": 0}, "tle": {"line1": "1 34913U 93036ADJ 25343.12758691  .00000220  00000+0  86960-4 0  9993", "line2": "2 34913  74.0282 289.1171 0020210  40.2127 339.2145 14.34635486651367"}}, "geometry": {"type": "Point", "coordinates": [-64.29233290338848, 23.353452775456716]}}, {"type": "Feature", "properties": {"norad_id": 34918, "name": "COSMOS 2251 DEB", "group": "cosmos-2251-debris", "lat": -30.69426534227228, "lon": 149.75357296366244, "alt_km": 689.22359758944, "timestamp": "2025-12-09T09:46:48.041205+00:00", "meta": {"OBJECT_NAME": "COSMOS 2251 DEB", "OBJECT_ID": "1993-036ADP", "EPOCH": "2025-12-02T07:49:20.078112", "MEAN_MOTION": 14.60858458, "ECCENTRICITY": 0.0034182, "INCLINATION": 74.0712, "RA_OF_ASC_NODE": 333.4916, "ARG_OF_PERICENTER": 302.4495, "MEAN_ANOMALY": 120.4085, "EPHEMERIS_TYPE": 0, "CLASSIFICATION_TYPE": "U", "NORAD_CAT_ID": 34918, "ELEMENT_SET_NO": 999, "REV_AT_EPOCH": 65184, "BSTAR": 0.0024749, "MEAN_MOTION_DOT": 0.00012194, "MEAN_MOTION_DDOT": 0}, "tle": {"line1": "1 34918U 93036ADP 25336.32592683  .00012194  00000+0  24749-2 0  9997", "line2": "2 34918  74.0712 333.4916 0034182 302.4495 120.4085 14.60858458651845"}}, "geometry": {"type": "Point", "coordinates": [149.75357296366244, -30.69426534227228]}}, {"type": "Feature", "properties": {"norad_id": 34924, "name": "COSMOS 2251 DEB", "group": "cosmos-2251-debris", "lat": -41.40071002449688, "lon": -69.58084050687616, "alt_km": 670.6338945132447, "timestamp": "2025-12-09T09:46:48.041216+00:00", "meta": {"OBJECT_NAME": "COSMOS 2251 DEB", "OBJECT_ID": "1993-036ADV", "EPOCH": "2025-12-08T18:39:21.381120", "MEAN_MOTION": 14.59970555, "ECCENTRICITY": 0.00547297, "INCLINATION": 74.0408, "RA_OF_ASC_NODE": 97.0075, "ARG_OF_PERICENTER": 182.6686, "MEAN_ANOMALY": 329.5278, "EPHEMERIS_TYPE": 0, "CLASSIFICATION_TYPE": "U", "NORAD_CAT_ID": 34924, "ELEMENT_SET_NO": 999, "REV_AT_EPOCH": 87665, "BSTAR": 0.0018394122, "MEAN_MOTION_DOT": 8.99e-05, "MEAN_MOTION_DDOT": 0}, "tle": {"line1": "1 34924U 93036ADV 25342.77733080  .00008990  00000+0  18394-2 0  9996", "line2": "2 34924  74.0408  97.0075 0054729 182.6686 329.5278 14.59970555876657"}}, "geometry": {"type": "Point", "coordinates": [-69.58084050687616, -41.40071002449688]}}, {"type": "Feature", "properties": {"norad_id": 34944, "name": "COSMOS 2251 DEB", "group": "cosmos-2251-debris", "lat": 19.252488665678882, "lon": 52.20391105086681, "alt_km": 796.7031672660014, "timestamp": "2025-12-09T09:46:48.041226+00:00", "meta": {"OBJECT_NAME": "COSMOS 2251 DEB", "OBJECT_ID": "1993-036ADX", "EPOCH": "2025-12-07T09:30:46.029312", "MEAN_MOTION": 14.14167925, "ECCENTRICITY": 0.02195348, "INCLINATION": 73.7495, "RA_OF_ASC_NODE": 241.6775, "ARG_OF_PERICENTER": 90.2413, "MEAN_ANOMALY": 272.3884, "EPHEMERIS_TYPE": 0, "CLASSIFICATION_TYPE": "U", "NORAD_CAT_ID": 34944, "ELEMENT_SET_NO": 999, "REV_AT_EPOCH": 64007, "BSTAR": 0.00099492053, "MEAN_MOTION_DOT": 2.364e-05, "MEAN_MOTION_DDOT": 0}, "tle": {"line1": "1 34944U 93036ADX 25341.39636608  .00002364  00000+0  99492-3 0  9991", "line2": "2 34944  73.7495 241.6775 0219534  90.2413 272.3884 14.14167925640077"}}, "geometry": {"type": "Point", "coordinates": [52.20391105086681, 19.252488665678882]}}, {"type": "Feature", "properties": {"norad_id": 34946, "name": "COSMOS 2251 DEB", "group": "cosmos-2251-debris", "lat": 41.1607131420766, "lon": 3.0035349505187416, "alt_km": 679.1528142688876, "timestamp": "2025-12-09T09:46:48.041238+00:00", "meta": {"OBJECT_NAME": "COSMOS 2251 DEB", "OBJECT_ID": "1993-036ADZ", "EPOCH": "2025-12-08T07:18:20.444256", "MEAN_MOTION": 14.61959947, "ECCENTRICITY": 0.00488078, "INCLINATION": 74.0233, "RA_OF_ASC_NODE": 350.6111, "ARG_OF_PERICENTER": 129.2241, "MEAN_ANOMALY": 231.3274, "EPHEMERIS_TYPE": 0, "CLASSIFICATION_TYPE": "U", "NORAD_CAT_ID": 34946, "ELEMENT_SET_NO": 999, "REV_AT_EPOCH": 88144, "BSTAR": 0.00082861214, "MEAN_MOTION_DOT": 4.194e-05, "MEAN_MOTION_DDOT": 0}, "tle": {"line1": "1 34946U 93036ADZ 25342.30440329  .00004194  00000+0  82861-3 0  9993", "line2": "2 34946  74.0233 350.6111 0048807 129.2241 231.3274 14.61959947881444"}}, "geometry": {"type": "Point", "coordinates": [3.0035349505187416, 41.1607131420766]}}, {"type": "Feature", "properties": {"norad_id": 34949, "name": "COSMOS 2251 DEB", "group": "cosmos-2251-debris", "lat": 22.027266431831393, "lon": -70.49209604614968, "alt_km": 662.2783037598138, "timestamp": "2025-12-09T09:46:48.041249+00:00", "meta": {"OBJECT_NAME": "COSMOS 2251 DEB", "OBJECT_ID": "1993-036AEC", "EPOCH": "2025-12-09T02:32:47.352768", "MEAN_MOTION": 14.73956165, "ECCENTRICITY": 0.0080433, "INCLINATION": 74.0182, "RA_OF_ASC_NODE": 116.7548, "ARG_OF_PERICENTER": 262.8128, "MEAN_ANOMALY": 96.3896, "EPHEMERIS_TYPE": 0, "CLASSIFICATION_TYPE": "U", "NORAD_CAT_ID": 34949, "ELEMENT_SET_NO": 999, "REV_AT_EPOCH": 88308, "BSTAR": 0.00070528, "MEAN_MOTION_DOT": 4.845e-05, "MEAN_MOTION_DDOT": 0}, "tle": {"line1": "1 34949U 93036AEC 25343.10610362  .00004845  00000+0  70528-3 0  9991", "line2": "2 34949  74.0182 116.7548 0080433 262.8128  96.3896 14.73956165883087"}}, "geometry": {"type": "Point", "coordinates": [-70.49209604614968, 22.027266431831393]}}, {"type": "Feature", "properties": {"norad_id": 34953, "name": "COSMOS 2251 DEB", "group": "cosmos-2251-debris", "lat": -13.33122856396449, "lon": -142.2066003887024, "alt_km": 708.3856533764429, "timestamp": "2025-12-09T09:46:48.041259+00:00", "meta": {"OBJECT_NAME": "COSMOS 2251 DEB", "OBJECT_ID": "1993-036AEG", "EPOCH": "2025-12-08T13:58:22.576800", "MEAN_MOTION": 14.68902056, "ECCENTRICITY": 0.0057826, "INCLINATION": 74.0931, "RA_OF_ASC_NODE": 35.5097, "ARG_OF_PERICENTER": 28.8094, "MEAN_ANOMALY": 122.3971, "EPHEMERIS_TYPE": 0, "CLASSIFICATION_TYPE": "U", "NORAD_CAT_ID": 34953, "ELEMENT_SET_NO": 999, "REV_AT_EPOCH": 88067, "BSTAR": 0.0011678, "MEAN_MOTION_DOT": 6.983e-05, "MEAN_MOTION_DDOT": 0}, "tle": {"line1": "1 34953U 93036AEG 25342.58220575  .00006983  00000+0  11678-2 0  9995", "line2": "2 34953  74.0931  35.5097 0057826  28.8094 122.3971 14.68902056880673"}}, "geometry": {"type": "Point", "coordinates": [-142.2066003887024, -13.33122856396449]}}]}